[{"OBJECT_NAME":"SCD 1","OBJECT_ID":"1993-009B","EPOCH":"2026-03-09T10:27:49.694112","MEAN_MOTION":14.46067729,"ECCENTRICITY":0.00420469,"INCLINATION":24.9688,"RA_OF_ASC_NODE":103.4557,"ARG_OF_PERICENTER":161.8893,"MEAN_ANOMALY":221.4416,"EPHEMERIS_TYPE":0,"CLASSIFICATION_TYPE":"U","NORAD_CAT_ID":22490,"ELEMENT_SET_NO":999,"REV_AT_EPOCH":74666,"BSTAR":9.424806e-5,"MEAN_MOTION_DOT":5.32e-6,"MEAN_MOTION_DDOT":0},{"OBJECT_NAME":"CZ-6A DEB","OBJECT_ID":"2022-151SS","EPOCH":"2026-03-09T15:25:54.080256","MEAN_MOTION":14.54456075,"ECCENTRICITY":0.00805516,"INCLINATION":98.5556,"RA_OF_ASC_NODE":111.935,"ARG_OF_PERICENTER":220.5839,"MEAN_ANOMALY":138.9334,"EPHEMERIS_TYPE":0,"CLASSIFICATION_TYPE":"U","NORAD_CAT_ID":54953,"ELEMENT_SET_NO":999,"REV_AT_EPOCH":17517,"BSTAR":0.0010346223,"MEAN_MOTION_DOT":4.549e-5,"MEAN_MOTION_DDOT":0}]
